ONEWEB-0275             
1 48993U 21060AC  25170.64794129  .00000110  00000+0  25435-3 0  9992
2 48993  87.9047 301.0368 0001911 103.7360 256.3984 13.16595500191859
ONEWEB-0276             
1 48994U 21060AD  25170.60518601  .00000053  00000+0  10517-3 0  9999
2 48994  87.9048 301.0425 0002150 102.0566 258.0806 13.16593886191869
ONEWEB-0277             
1 48995U 21060AE  25170.61784111 -.00000013  00000+0 -68456-4 0  9996
2 48995  87.9045 301.0754 0002117 110.5462 249.5897 13.16593303193146
ONEWEB-0278             
1 48996U 21060AF  25171.29232214  .00000018  00000+0  14737-4 0  9990
2 48996  87.9049 300.9019 0002035  95.2803 264.8560 13.16593695193387
ONEWEB-0279             
1 48997U 21060AG  25170.61626365  .00000048  00000+0  91650-4 0  9992
2 48997  87.9047 301.0327 0002001 110.3313 249.8033 13.16594100193210
ONEWEB-0280             
1 48998U 21060AH  25170.78330279 -.00000047  00000+0 -15632-3 0  9993
2 48998  87.9047 301.0058 0002290 100.4130 259.7259 13.16593901193161
ONEWEB-0281             
1 48999U 21060AJ  25170.63685933  .00000015  00000+0  54530-5 0  9993
2 48999  87.9046 301.0329 0001731 101.6498 258.4827 13.16595411191928
ONEWEB-0282             
1 49000U 21060AK  25171.12291362  .00000088  00000+0  19558-3 0  9990
2 49000  87.9041 300.9499 0002092 102.0921 258.0444 13.16593502193281
